EUTELSAT 21B            
1 38992U 12062B   25341.21566640  .00000135  00000+0  00000+0 0  9994
2 38992   0.0665 353.9118 0003215 270.7349 270.8362  1.00270041 47906
EUTELSAT 70B            
1 39020U 12069A   25341.08586225 -.00000039  00000+0  00000+0 0  9994
2 39020   0.0644  10.1559 0004300 234.4627 292.9149  1.00271953 47584
EUTELSAT 117 WEST A     
1 39122U 13012A   25341.29908892 -.00000008  00000+0  00000+0 0  9993
2 39122   0.0139 332.4793 0003150 284.5051 170.2153  1.00270117 46500
EUTELSAT 7B             
1 39163U 13022A   25341.28413350  .00000052  00000+0  00000+0 0  9996
2 39163   0.0694   9.5468 0004481 303.1607 232.8770  1.00270747 46032
EXPRESS-AT1             
1 39612U 14010A   25341.22251311  .00000083  00000+0  00000+0 0  9998
2 39612   0.0179 308.4123 0000517 232.3307  31.6130  1.00272011 42895
EXPRESS-AT2             
1 39613U 14010B   25341.19141905  .00000000  00000+0  00000+0 0  9991
2 39613   0.0173 356.0304 0001403 292.4604 356.4947  1.00268934 42570
EUTELSAT 3B             
1 39773U 14030A   25341.28335350  .00000025  00000+0  00000+0 0  9996
2 39773   0.0655  12.2478 0004694 219.4188 309.7493  1.00271879 42148
EUTELSAT 115 WEST B     
1 40425U 15010B   25340.44963448 -.00000018  00000+0  00000+0 0  9996
2 40425   0.0070 143.6476 0000312 276.9333  61.9058  1.00271104 39461
